#aV2012  5 23  0  0  0.00000000     288 DD+AD WGS84 FIT  NGA
## 1689 259200.00000000   300.00000000 56070 0.0000000000000
+   31     1  2  3  4  5  6  7  8  9 10 11 12 13 14 15 16 17
+         18 19 20 21 22 23 25 26 27 28 29 30 31 32  0  0  0
+          0  0  0  0  0  0  0  0  0  0  0  0  0  0  0  0  0
+          0  0  0  0  0  0  0  0  0  0  0  0  0  0  0  0  0
+          0  0  0  0  0  0  0  0  0  0  0  0  0  0  0  0  0
++         2  2  2  2  2  2  2  2  2  2  2  2  2  2  2  2  2
++         2  2  2  2  2  2  2  2  2  2  2  2  2  2  2  0  0
++         0  0  0  0  0  0  0  0  0  0  0  0  0  0  0  0  0
++         0  0  0  0  0  0  0  0  0  0  0  0  0  0  0  0  0
++         0  0  0  0  0  0  0  0  0  0  0  0  0  0  0  0  0
%c cc cc ccc ccc cccc cccc cccc cccc ccccc ccccc ccccc ccccc
%c cc cc ccc ccc cccc cccc cccc cccc ccccc ccccc ccccc ccccc
%f  0.0000000  0.000000000  0.00000000000  0.000000000000000
%f  0.0000000  0.000000000  0.00000000000  0.000000000000000
%i    0    0    0    0      0      0      0      0         0
%i    0    0    0    0      0      0      0      0         0
/*      NGA, ST. LOUIS,MO.                                  
/*   EPHEMERIS COMPUTED FROM  1 DAYS OF DATA
/*   EPOCHA SMOOTHER  
/* CCCCCCCCCCCCCCCCCCCCCCCCCCCCCCCCCCCCCCCCCCCCCCCCCCCCCCCCC
*  2012  5 23  3 25  0.00000000                                                 
P  1  17782.171414   5020.741461  19085.005629    257.863603                    
V  1  10138.503288  22060.237005 -15211.522197      0.018725                    
P  2 -13510.034642 -23163.376982  -1014.895695    391.159626                    
V  2   2027.439319  -2734.148610  30884.649908      0.012970                    
P  3  16703.139459  11634.283006 -17670.635382     52.508370                    
V  3 -21251.100734   3872.662777 -17744.574574      0.050272                    
P  4  -4634.608396 -24045.922844   9628.346692    191.782453                    
V  4   9000.692515   9646.198530  28027.515398      0.116144                    
P  5  -7979.661211 -14805.637848 -20549.285077   -318.010274                    
V  5  14804.152893 -21529.949938   9896.132143     -0.038149                    
P  6  12372.292391  13753.489922 -19038.435879     24.267309                    
V  6 -24390.867045   1897.040979 -14083.320578     -0.026946                    
P  7  12009.379939  -9048.271951 -21855.364836     83.696154                    
V  7  12830.416238  24637.523241  -3396.779581      0.034829                    
P  8   3413.212204 -20124.113140 -16593.195959      1.276360                    
V  8   9352.574279  19257.115655 -21900.429368      0.001055                    
P  9 -17766.035720  -9874.290488  16517.513187    160.020961                    
V  9  -9058.387053 -20122.138606 -21105.938396      0.025550                    
P 10   7125.281800 -23530.068397  -9771.731273    -39.039995                    
V 10   9383.430583  -8426.447975  28244.379548     -0.011569                    
P 11  21891.424209   9043.547885  11936.964394   -264.030757                    
V 11   7949.967067  14263.172985 -24278.236643     -0.038085                    
P 12 -17244.259484   1583.483255  20074.316940     70.466973                    
V 12  13328.910146 -21772.344934  13355.141939      0.020851                    
P 13  21818.006738  -6413.493685 -13949.953272    205.712681                    
V 13  17037.980650   3747.408224  25089.503388     -0.023455                    
P 14  -5158.735560  14296.349412  21944.589018    203.423533                    
V 14 -27211.994128  -3250.153035  -4456.290305      0.009376                    
P 15 -26030.780227  -3712.238562  -4487.952636    -91.413169                    
V 15   5721.646377  -2949.525199 -30592.240184     -0.000953                    
P 16   6706.791868  14857.870087 -20893.419842   -235.782878                    
V 16 -15844.739919  21332.619098  10391.591627     -0.012670                    
P 17   6987.996530 -14373.441002  21355.033952    126.757850                    
V 17  26606.024541   2731.142422  -7156.422598     -0.029053                    
P 18 -17032.386442  19371.045218  -5095.633783    197.004602                    
V 18    413.371528  -8088.409579 -30377.103998      0.018027                    
P 19  24917.905499   7609.720205  -6192.203863   -267.950954                    
V 19  -7965.819534   1380.081397 -30187.762288     -0.037421                    
P 20  18795.534601  -7047.897296  17202.559613     63.492118                    
V 20  -9076.221724  20470.430957  18201.561854      0.001602                    
P 21  -9719.082779  13623.640054 -20010.216611   -225.443840                    
V 21 -13612.995072 -23095.497616  -9472.959793     -0.024668                    
P 22  -8046.461350  23876.710886   8379.096535    143.995312                    
V 22  -8744.534991   6820.027256 -28576.807935      0.002327                    
P 23  26590.157564   -643.338885  -2961.359410    202.674305                    
V 23   3621.781603   2693.841727  31204.619862     -0.037141                    
P 25 -18480.289829  15556.077942  10937.201843     34.343671                    
V 25   5414.520215 -13053.789826  27690.625966      0.004837                    
P 26 -17474.722761 -13007.656230 -16068.776033   -394.052658                    
V 26  19057.364176   1362.897604 -22361.586448      0.095420                    
P 27 -18568.208495 -14540.513107  13304.291199    390.797429                    
V 27  -6732.362519 -14204.750439 -25664.390343      0.040050                    
P 28  10765.174018 -23307.337589   6883.494407    146.925045                    
V 28   6439.350736  -5307.098402 -30706.151387      0.039893                    
P 29 -23721.892073   5350.335297 -10556.943379    315.829121                    
V 29 -13261.184344  -3589.400721  27848.412846      0.037860                    
P 30    609.188135  22175.346294 -14961.232599   -195.110555                    
V 30  -9991.818401  15548.422047  23203.190658     -0.206865                    
P 31   5342.094911  24301.625486   9122.509711    245.060074                    
V 31  -7004.570775  -9204.219473  29460.270159      0.041004                    
P 32  16143.337253   3407.622601  20930.608479   -446.617382                    
V 32 -15097.448073  21477.207815   8702.128689     -0.039968                    
EOF
